NORAD_CAT_ID,OBJECT_NAME,OBJECT_TYPE,EPOCH,MEAN_MOTION,ECCENTRICITY,INCLINATION,RA_OF_ASC_NODE,ARG_OF_PERICENTER,MEAN_ANOMALY,BSTAR,MEAN_MOTION_DOT,MEAN_MOTION_DDOT,TLE_LINE0,TLE_LINE1,TLE_LINE2,SEMIMAJOR_AXIS,PERIOD,APOGEE,PERIGEE,DECAYED
53176.0,STARLINK-4294,PAYLOAD,2022-08-09 14:00:01,15.73166743,0.0002706,53.2177,293.0185,16.3311,73.0546,-0.00021071,-0.00030052,0.0,0 STARLINK-4294,1 53176U 22083AW  22221.58334491 -.00030052  00000-0 -21071-3 0  9999,2 53176  53.2177 293.0185 0002706  16.3311  73.0546 15.73166743  4278,6727.99,91.535,351.676,348.034,0.0
53176.0,STARLINK-4294,PAYLOAD,2022-08-09 22:00:00,15.73133092,0.0002563,53.2177,291.3676,13.3935,164.8708,0.00012841,0.00017388,0.0,0 STARLINK-4294,1 53176U 22083AW  22221.91667824  .00017388  00000-0  12841-3 0  9995,2 53176  53.2177 291.3676 0002563  13.3935 164.8708 15.73133092  1305,6728.0859999999975,91.537,351.675,348.227,0.0
53176.0,STARLINK-4294,PAYLOAD,2022-08-10 04:00:00,15.731462400000002,0.0002475,53.2177,290.1298,16.2416,138.6698,0.00056182,0.00078794,0.0,0 STARLINK-4294,1 53176U 22083AW  22222.16667824  .00078794  00000-0  56182-3 0  9997,2 53176  53.2177 290.1298 0002475  16.2416 138.6698 15.73146240  4365,6728.0480000000025,91.536,351.579,348.24800000000016,0.0
53176.0,STARLINK-4294,PAYLOAD,2022-08-10 14:00:01,15.73179567,0.0002841,53.2178,288.0706,14.3057,341.717,0.00026358,0.00036504,0.0,0 STARLINK-4294,1 53176U 22083AW  22222.58334491  .00036504  00000-0  26358-3 0  9999,2 53176  53.2178 288.0706 0002841  14.3057 341.7170 15.73179567  1304,6727.953,91.534,351.73,347.907,0.0
53176.0,STARLINK-4294,PAYLOAD,2022-08-10 22:00:00,15.73182711,0.0002641,53.2175,286.4196,11.6789,73.2769,-9.8364e-05,-0.00014395,0.0,0 STARLINK-4294,1 53176U 22083AW  22222.91667824 -.00014395  00000-0 -98364-4 0  9998,2 53176  53.2175 286.4196 0002641  11.6789  73.2769 15.73182711  1302,6727.944,91.534,351.586,348.033,0.0
53176.0,STARLINK-4294,PAYLOAD,2022-08-11 14:00:01,15.73113715,0.0003005,53.2169,283.1229,16.6527,246.095,0.00050222,0.00070203,0.0,0 STARLINK-4294,1 53176U 22083AW  22223.58334491  .00070203  00000-0  50222-3 0  9991,2 53176  53.2169 283.1229 0003005  16.6527 246.0950 15.73113715  1306,6728.141,91.538,352.028,347.9840000000001,0.0
53176.0,STARLINK-4294,PAYLOAD,2022-08-11 20:00:01,15.73277256,0.0002903,53.2165,281.8843,14.6004,224.8922,-0.0007847,-0.00109717,0.0,0 STARLINK-4294,1 53176U 22083AW  22223.83334491 -.00109717  00000-0 -78470-3 0  9999,2 53176  53.2165 281.8843 0002903  14.6004 224.8922 15.73277256  4625,6727.675,91.529,351.49300000000005,347.587,0.0
53176.0,STARLINK-4294,PAYLOAD,2022-08-12 04:00:00,15.73218711,0.0002813999999999,53.2168,280.2338,18.206,310.2573,0.00019637,0.00027052,0.0,0 STARLINK-4294,1 53176U 22083AW  22224.16667824  .00027052  00000-0  19637-3 0  9994,2 53176  53.2168 280.2338 0002814  18.2060 310.2573 15.73218711  4671,6727.842,91.532,351.6,347.814,0.0
53176.0,STARLINK-4294,PAYLOAD,2022-08-12 14:00:01,15.73166854,0.0003109,53.2167,278.1741,13.3755,156.3135,0.00064923,0.00091376,0.0,0 STARLINK-4294,1 53176U 22083AW  22224.58334491  .00091376  00000-0  64923-3 0  9999,2 53176  53.2167 278.1741 0003109  13.3755 156.3135 15.73166854  4740,6727.99,91.535,351.946,347.76300000000015,0.0
53176.0,STARLINK-4294,PAYLOAD,2022-08-12 20:00:01,15.73261289,0.0002978,53.2164,276.9356,11.8312,134.6036,-0.00082699,-0.00115442,0.0,0 STARLINK-4294,1 53176U 22083AW  22224.83335648 -.00115442  00000-0 -82699-3 0  9995,2 53176  53.2164 276.9356 0002978  11.8312 134.6036 15.73261289  4781,6727.72,91.53,351.589,347.582,0.0
53176.0,STARLINK-4294,PAYLOAD,2022-08-12 22:00:01,15.73225716,0.0002898999999999,53.2165,276.5227,11.5227,247.1625,-0.00046876,-0.00065984,0.0,0 STARLINK-4294,1 53176U 22083AW  22224.91668981 -.00065984  00000-0 -46876-3 0  9995,2 53176  53.2165 276.5227 0002899  11.5227 247.1625 15.73225716  1303,6727.821999999999,91.532,351.63699999999994,347.736,0.0
53176.0,STARLINK-4294,PAYLOAD,2022-08-13 04:00:00,15.732004000000002,0.0002784,53.2163,275.2854,9.7005,225.6147,-0.00012201,-0.00017713,0.0,0 STARLINK-4294,1 53176U 22083AW  22225.16667824 -.00017713  00000-0 -12201-3 0  9990,2 53176  53.2163 275.2854 0002784   9.7005 225.6147 15.73200400  4833,6727.894,91.533,351.63199999999995,347.886,0.0
53176.0,STARLINK-4294,PAYLOAD,2022-08-13 14:00:01,15.73107036,0.0003133,53.2157,273.2258,5.9707,70.4923,0.00059459,0.00083339,0.0,0 STARLINK-4294,1 53176U 22083AW  22225.58334491  .00083339  00000-0  59459-3 0  9998,2 53176  53.2157 273.2258 0003133   5.9707  70.4923 15.73107036  1306,6728.16,91.539,352.1330000000001,347.917,0.0
53176.0,STARLINK-4294,PAYLOAD,2022-08-13 22:00:00,15.73144273,0.0002927,53.2157,271.5743,6.0049,159.316,0.00036838,0.00051279,0.0,0 STARLINK-4294,1 53176U 22083AW  22225.91667824  .00051279  00000-0  36838-3 0  9998,2 53176  53.2157 271.5743 0002927   6.0049 159.3160 15.73144273  1301,6728.054,91.536,351.88800000000015,347.95,0.0
53176.0,STARLINK-4294,PAYLOAD,2022-08-14 04:00:00,15.73181651,0.0002815,53.2161,270.3347,9.7742,132.2015,0.00025101,0.00034729,0.0,0 STARLINK-4294,1 53176U 22083AW  22226.16667824  .00034729  00000-0  25101-3 0  9998,2 53176  53.2161 270.3347 0002815   9.7742 132.2015 15.73181651  4997,6727.946999999999,91.534,351.706,347.9190000000001,0.0
53176.0,STARLINK-4294,PAYLOAD,2022-08-14 12:00:00,15.73201623,0.0003276999999999,53.2164,268.6885,9.3819,221.5528,0.00048769,0.00068401,0.0,0 STARLINK-4294,1 53176U 22083AW  22226.50001157  .00068401  00000-0  48769-3 0  9996,2 53176  53.2164 268.6885 0003277   9.3819 221.5528 15.73201623  5041,6727.891,91.533,351.96,347.551,0.0
53176.0,STARLINK-4294,PAYLOAD,2022-08-14 14:00:01,15.73212831,0.0003314,53.2157,268.2771,9.337,333.8183,0.00022491,0.00031084,0.0,0 STARLINK-4294,1 53176U 22083AW  22226.58334491  .00031084  00000-0  22491-3 0  9995,2 53176  53.2157 268.2771 0003314   9.3370 333.8183 15.73212831  1309,6727.859,91.532,351.95300000000015,347.494,0.0
53176.0,STARLINK-4294,PAYLOAD,2022-08-14 20:00:01,15.73238702,0.0003148,53.2158,267.0382,12.7903,307.09,-0.0004378999999999,-0.0006175,0.0,0 STARLINK-4294,1 53176U 22083AW  22226.83334491 -.00061750  00000-0 -43790-3 0  9993,2 53176  53.2158 267.0382 0003148  12.7903 307.0900 15.73238702  5095,6727.785,91.531,351.76800000000014,347.532,0.0
53176.0,STARLINK-4294,PAYLOAD,2022-08-14 22:00:00,15.73184095,0.0003083,53.2158,266.6254,12.8944,59.2427,0.00027631,0.00038314,0.0,0 STARLINK-4294,1 53176U 22083AW  22226.91667824  .00038314  00000-0  27631-3 0  9995,2 53176  53.2158 266.6254 0003083  12.8944  59.2427 15.73184095  1307,6727.941,91.534,351.88,347.731,0.0
53176.0,STARLINK-4294,PAYLOAD,2022-08-15 04:00:00,15.73212074,0.0003131,53.2158,265.3884,16.0143,32.8023,0.00013491,0.00018366,0.0,0 STARLINK-4294,1 53176U 22083AW  22227.16667824  .00018366  00000-0  13491-3 0  9997,2 53176  53.2158 265.3884 0003131  16.0143  32.8023 15.73212074  5147,6727.861,91.532,351.832,347.619,0.0
53176.0,STARLINK-4294,PAYLOAD,2022-08-15 14:00:01,15.7319202,0.0003382,53.2151,263.3282,12.451,237.5629,4.2925e-05,5.404e-05,0.0,0 STARLINK-4294,1 53176U 22083AW  22227.58334491  .00005404  00000-0  42925-4 0  9998,2 53176  53.2151 263.3282 0003382  12.4510 237.5629 15.73192020  1304,6727.918000000002,91.534,352.05800000000005,347.5080000000001,0.0
53176.0,STARLINK-4294,PAYLOAD,2022-08-15 20:00:01,15.731953400000002,0.0003185,53.2154,262.0894,12.748,213.9642,0.00010897,0.00014697,0.0,0 STARLINK-4294,1 53176U 22083AW  22227.83334491  .00014697  00000-0  10897-3 0  9992,2 53176  53.2154 262.0894 0003185  12.7480 213.9642 15.73195340  5251,6727.908,91.533,351.916,347.631,0.0
53176.0,STARLINK-4294,PAYLOAD,2022-08-15 22:00:00,15.73173583,0.0003109999999999,53.2153,261.6766,13.2189,325.7322,0.00050869,0.0007131,0.0,0 STARLINK-4294,1 53176U 22083AW  22227.91667824  .00071310  00000-0  50869-3 0  9998,2 53176  53.2153 261.6766 0003110  13.2189 325.7322 15.73173583  1307,6727.97,91.535,351.92800000000005,347.74300000000005,0.0
53176.0,STARLINK-4294,PAYLOAD,2022-08-16 14:00:01,15.73223876,0.0003402,53.2155,258.3793,10.4985,146.3632,-6.5521e-05,-9.821e-05,0.0,0 STARLINK-4294,1 53176U 22083AW  22228.58334491 -.00009821  00000-0 -65521-4 0  9995,2 53176  53.2155 258.3793 0003402  10.4985 146.3632 15.73223876  1301,6727.8269999999975,91.532,351.981,347.403,0.0
53176.0,STARLINK-4294,PAYLOAD,2022-08-16 22:00:00,15.73214536,0.0003148999999999,53.2157,256.7276,8.7842,237.0387,-0.00017357,-0.00024932,0.0,0 STARLINK-4294,1 53176U 22083AW  22228.91667824 -.00024932  00000-0 -17357-3 0  9994,2 53176  53.2157 256.7276 0003149   8.7842 237.0387 15.73214536  1309,6727.854,91.532,351.837,347.6,0.0
53176.0,STARLINK-4294,PAYLOAD,2022-08-17 06:00:02,15.73196179,0.0003255,53.2155,255.0791,8.2925,326.5278,-3.438e-05,-5.446e-05,0.0,0 STARLINK-4294,1 53176U 22083AW  22229.25002315 -.00005446  00000-0 -34380-4 0  9995,2 53176  53.2155 255.0791 0003255   8.2925 326.5278 15.73196179  5473,6727.906,91.533,351.961,347.581,0.0
53176.0,STARLINK-4294,PAYLOAD,2022-08-17 14:00:01,15.73223251,0.0003446,53.2149,253.4305,6.7652,56.9114,-0.00029227,-0.00041495,0.0,0 STARLINK-4294,1 53176U 22083AW  22229.58334491 -.00041495  00000-0 -29227-3 0  9991,2 53176  53.2149 253.4305 0003446   6.7652  56.9114 15.73223251  1304,6727.829000000002,91.532,352.01199999999994,347.375,0.0
53176.0,STARLINK-4294,PAYLOAD,2022-08-18 06:00:02,15.73222516,0.0003269,53.2155,250.1307,8.1121,233.491,0.00013297,0.00018101,0.0,0 STARLINK-4294,1 53176U 22083AW  22230.25002315  .00018101  00000-0  13297-3 0  9990,2 53176  53.2155 250.1307 0003269   8.1121 233.4910 15.73222516  5636,6727.831,91.532,351.895,347.497,0.0
53176.0,STARLINK-4294,PAYLOAD,2022-08-18 14:00:01,15.73265135,0.0003464999999999,53.2154,248.4819,8.9427,321.5673,-0.00031832,-0.00045199,0.0,0 STARLINK-4294,1 53176U 22083AW  22230.58334491 -.00045199  00000-0 -31832-3 0  9993,2 53176  53.2154 248.4819 0003465   8.9427 321.5673 15.73265135  1307,6727.709,91.529,351.906,347.24300000000005,0.0
